#aV2012 11  7  0  0  0.00000000     288 DD+AD WGS84 FIT  NGA
## 1713 259200.00000000   300.00000000 56238 0.0000000000000
+   31     1  2  3  4  5  6  7  8  9 10 11 12 13 14 15 16 17
+         18 19 20 21 22 23 24 25 26 28 29 30 31 32  0  0  0
+          0  0  0  0  0  0  0  0  0  0  0  0  0  0  0  0  0
+          0  0  0  0  0  0  0  0  0  0  0  0  0  0  0  0  0
+          0  0  0  0  0  0  0  0  0  0  0  0  0  0  0  0  0
++         2  2  2  2  2  2  2  2  2  2  2  2  2  2  2  2  2
++         2  2  2  2  2  2  2  2  2  2  2  2  2  2  2  0  0
++         0  0  0  0  0  0  0  0  0  0  0  0  0  0  0  0  0
++         0  0  0  0  0  0  0  0  0  0  0  0  0  0  0  0  0
++         0  0  0  0  0  0  0  0  0  0  0  0  0  0  0  0  0
%c cc cc ccc ccc cccc cccc cccc cccc ccccc ccccc ccccc ccccc
%c cc cc ccc ccc cccc cccc cccc cccc ccccc ccccc ccccc ccccc
%f  0.0000000  0.000000000  0.00000000000  0.000000000000000
%f  0.0000000  0.000000000  0.00000000000  0.000000000000000
%i    0    0    0    0      0      0      0      0         0
%i    0    0    0    0      0      0      0      0         0
/*      NGA, ST. LOUIS,MO.                                  
/*   EPHEMERIS COMPUTED FROM  1 DAYS OF DATA
/*   EPOCHA SMOOTHER  
/* CCCCCCCCCCCCCCCCCCCCCCCCCCCCCCCCCCCCCCCCCCCCCCCCCCCCCCCCC
*  2012 11  7 22 45  0.00000000                                                 
P  1 -11238.720512  20853.171384 -11975.328794    281.401006                    
V  1 -13059.488112   8134.865586  26527.558964      0.017897                    
P  2  21826.490916 -12912.611877  -6800.459865    408.271563                    
V  2  -4150.844927   8827.644056 -29928.306846      0.010964                    
P  3 -12518.806823  10367.343204  20473.218236    125.325719                    
V  3  -9745.804245 -25510.294075   7034.320674      0.052056                    
P  4  19878.981510    258.927363 -18026.127507     39.571568                    
V  4 -15719.293086  15923.687571 -17071.424224      0.112664                    
P  5  20520.098298  -5120.652420  16129.783097   -365.035171                    
V  5  18722.678345   8587.940941 -20917.680579     -0.025930                    
P  6 -15271.978293   3771.737802  21499.041025    463.704046                    
V  6  -6856.681696 -26272.360422     62.473450     -0.114337                    
P  7   3024.919398  15973.457915  20982.101594    142.832492                    
V  7 -20935.164780  16389.397026  -9754.207772      0.045128                    
P  8  14347.347412   6876.736394  21478.819441      2.748794                    
V  8 -21907.407946  15482.905692   9146.378009      0.001648                    
P  9  14653.544959 -20607.698164  -8775.975156    198.122332                    
V  9   8915.020097  -5510.376562  29626.035765      0.025988                    
P 10  25241.742872   8940.077758    449.439318    -57.737989                    
V 10   -190.717438   3086.939696 -31129.406174     -0.012368                    
P 11 -11432.221514  23541.022660  -3913.473050   -320.881713                    
V 11  -6855.979145   1029.213043  29692.183510     -0.038732                    
P 12   3524.017495 -14412.870814 -22055.763083    100.412622                    
V 12  26105.797724   9809.201967  -2055.823061      0.020242                    
P 13   4832.766797  25785.610241   3598.738397    168.848559                    
V 13  -1715.105310   4922.743363 -31898.421230     -0.026605                    
P 14 -13563.820817 -14807.416771 -17262.104965    216.333249                    
V 14  -1304.725866 -22217.029866  19715.875198      0.006886                    
P 15   6334.837363 -21052.180116  14726.297655    -99.104609                    
V 15   6577.630870  17863.377173  22926.734481     -0.009182                    
P 16 -20611.279175   3641.164531  16534.747667   -249.213624                    
V 16 -18894.826308  -8852.296487 -21290.112342     -0.005660                    
P 17  14357.437977  13966.181212 -17379.031649     80.684758                    
V 17   1854.570136  22310.756616  19015.021875     -0.034806                    
P 18 -16267.126908 -16534.654156  13631.105021    223.518951                    
V 18  16550.580846   3075.937617  23808.810282      0.018378                    
P 19  -9413.258936  18664.873097  16066.933502   -320.124497                    
V 19  -4216.642933 -20385.459744  21506.834215     -0.034402                    
P 20  -1271.520058  16140.238177 -21226.394784     72.710659                    
V 20 -25731.603285  -7101.296576  -3813.636286      0.010995                    
P 21  -7770.797038 -14338.751854  21428.813684   -260.810282                    
V 21  20325.263917 -16541.127991  -4351.500720     -0.023447                    
P 22 -24535.454205 -10215.901700   1865.164251    150.846487                    
V 22   3287.866487  -2819.644984  30778.425866      0.008018                    
P 23  -1773.879805  24806.205320  -8692.532299    146.288649                    
V 23  -4915.855082 -10540.476946 -29257.803375     -0.038668                    
P 24  15836.297916 -20328.589880  -6881.557136      4.222503                    
V 24   8228.012180  -3761.540857  30045.260907      0.007298                    
P 25 -10088.469667 -16558.587984 -18219.311839     50.047234                    
V 25  22228.581110   6082.745832 -17807.907043      0.018240                    
P 26  12771.351207  -9733.826484  20456.919538   -218.126490                    
V 26   3740.205451  27208.468252  10642.793826      0.135725                    
P 28  22600.782249  13238.916688   5603.480482    202.521038                    
V 28  -6561.820700   -671.430110  31026.933092      0.036513                    
P 29  -4719.988537 -26128.940105   1341.548047    374.624014                    
V 29   2408.909999  -2005.833906 -31744.305489      0.040879                    
P 30 -25697.930620  -1752.960172   6073.942200   -330.291244                    
V 30  -7320.539792  -4567.171289 -30529.777736      0.154036                    
P 31 -20945.701879   3512.558339 -15917.709103    285.433170                    
V 31  14828.419386 -14111.812310 -22112.072296      0.021756                    
P 32 -11764.588178  11031.674665 -20839.320966   -505.781499                    
V 32 -24235.500017 -11957.821891   7788.382240     -0.035478                    
EOF
